start=new Date('2022-07-14T00:00:00.000Z').valueOf();
sats=[{"OBJECT_NAME":"STARLINK-2494","LAUNCH_DATE":"2021-05-09","ELEMENT_SET_NO":"999","SITE":"AFETR","TIME_SYSTEM":"UTC","ARG_OF_PERICENTER":"69.8445","CLASSIFICATION_TYPE":"U","TLE_LINE1":"1 48487U 21040BM  22194.40386083  .00008646  00000-0  59807-3 0  9994","PERIOD":"95.590","DECAY_DATE":null,"GP_ID":"208035566","APOAPSIS":"548.175","REF_FRAME":"TEME","OBJECT_TYPE":"PAYLOAD","BSTAR":"0.00059807000000","EPOCH":"2022-07-13T09:41:33.575712","SEMIMAJOR_AXIS":"6925.241","MEAN_ELEMENT_THEORY":"SGP4","TLE_LINE2":"2 48487  53.0537  75.9489 0001543  69.8445 290.2710 15.06435090 65091","EPHEMERIS_TYPE":"0","REV_AT_EPOCH":"6509","OBJECT_ID":"2021-040BM","FILE":"3512925","MEAN_MOTION_DOT":"0.00008646","NORAD_CAT_ID":"48487","ECCENTRICITY":"0.00015430","COUNTRY_CODE":"US","PERIAPSIS":"546.037","MEAN_ANOMALY":"290.2710","CENTER_NAME":"EARTH","RCS_SIZE":"LARGE","INCLINATION":"53.0537","MEAN_MOTION":"15.06435090","MEAN_MOTION_DDOT":"0.0000000000000","RA_OF_ASC_NODE":"75.9489"},{"ECCENTRICITY":"0.00014060","COUNTRY_CODE":"US","PERIAPSIS":"546.168","MEAN_ANOMALY":"288.5551","OBJECT_TYPE":"PAYLOAD","BSTAR":"0.00039730000000","EPOCH":"2022-07-13T04:21:45.769536","SEMIMAJOR_AXIS":"6925.277","TLE_LINE2":"2 48553  53.0538   6.9495 0001406  71.5591 288.5551 15.06423302 63912","MEAN_ELEMENT_THEORY":"SGP4","REV_AT_EPOCH":"6391","OBJECT_ID":"2021-041A","EPHEMERIS_TYPE":"0","FILE":"3512925","NORAD_CAT_ID":"48553","MEAN_MOTION_DOT":"0.00005645","INCLINATION":"53.0538","MEAN_MOTION":"15.06423302","MEAN_MOTION_DDOT":"0.0000000000000","RA_OF_ASC_NODE":"6.9495","RCS_SIZE":"LARGE","CENTER_NAME":"EARTH","CLASSIFICATION_TYPE":"U","TLE_LINE1":"1 48553U 21041A   22194.18177974  .00005645  00000-0  39730-3 0  9990","DECAY_DATE":null,"PERIOD":"95.591","GP_ID":"208034829","OBJECT_NAME":"STARLINK-2063","LAUNCH_DATE":"2021-05-15","ELEMENT_SET_NO":"999","SITE":"AFETR","TIME_SYSTEM":"UTC","ARG_OF_PERICENTER":"71.5591","REF_FRAME":"TEME","APOAPSIS":"548.116"},{"REF_FRAME":"TEME","APOAPSIS":"548.182","GP_ID":"208066177","TLE_LINE1":"1 48554U 21041B   22194.78627428  .00000102  00000-0  25761-4 0  9994","DECAY_DATE":null,"PERIOD":"95.592","CLASSIFICATION_TYPE":"U","ARG_OF_PERICENTER":"107.5480","TIME_SYSTEM":"UTC","SITE":"AFETR","OBJECT_NAME":"STARLINK-2139","ELEMENT_SET_NO":"999","LAUNCH_DATE":"2021-05-15","RA_OF_ASC_NODE":"4.2444","MEAN_MOTION":"15.06397585","MEAN_MOTION_DDOT":"0.0000000000000","INCLINATION":"53.0559","RCS_SIZE":"LARGE","CENTER_NAME":"EARTH","MEAN_ANOMALY":"252.5661","ECCENTRICITY":"0.00013880","COUNTRY_CODE":"US","PERIAPSIS":"546.260","NORAD_CAT_ID":"48554","FILE":"3513188","MEAN_MOTION_DOT":"0.00000102","MEAN_ELEMENT_THEORY":"SGP4","TLE_LINE2":"2 48554  53.0559   4.2444 0001388 107.5480 252.5661 15.06397585 64004","OBJECT_ID":"2021-041B","REV_AT_EPOCH":"6400","EPHEMERIS_TYPE":"0","BSTAR":"0.00002576100000","EPOCH":"2022-07-13T18:52:14.097792","SEMIMAJOR_AXIS":"6925.356","OBJECT_TYPE":"PAYLOAD"},{"TIME_SYSTEM":"UTC","ARG_OF_PERICENTER":"77.3645","SITE":"AFETR","LAUNCH_DATE":"2021-05-15","ELEMENT_SET_NO":"999","OBJECT_NAME":"STARLINK-2145","GP_ID":"208066919","PERIOD":"95.592","TLE_LINE1":"1 48555U 21041C   22194.81483784 -.00002400  00000-0 -14224-3 0  9990","DECAY_DATE":null,"CLASSIFICATION_TYPE":"U","APOAPSIS":"548.298","REF_FRAME":"TEME","MEAN_MOTION_DOT":"-0.00002400","FILE":"3513188","NORAD_CAT_ID":"48555","REV_AT_EPOCH":"6386","EPHEMERIS_TYPE":"0","OBJECT_ID":"2021-041C","MEAN_ELEMENT_THEORY":"SGP4","TLE_LINE2":"2 48555  53.0546  14.1090 0001583  77.3645 282.7521 15.06403789 63869","EPOCH":"2022-07-13T19:33:21.989376","SEMIMAJOR_AXIS":"6925.337","BSTAR":"-0.00014224000000","OBJECT_TYPE":"PAYLOAD","MEAN_ANOMALY":"282.7521","PERIAPSIS":"546.106","ECCENTRICITY":"0.00015830","COUNTRY_CODE":"US","RCS_SIZE":"LARGE","CENTER_NAME":"EARTH","RA_OF_ASC_NODE":"14.1090","MEAN_MOTION_DDOT":"0.0000000000000","MEAN_MOTION":"15.06403789","INCLINATION":"53.0546"},{"GP_ID":"208065177","CLASSIFICATION_TYPE":"U","PERIOD":"95.592","TLE_LINE1":"1 48556U 21041D   22194.80377802  .00000596  00000-0  58873-4 0  9994","DECAY_DATE":null,"SITE":"AFETR","ARG_OF_PERICENTER":"83.2982","TIME_SYSTEM":"UTC","OBJECT_NAME":"STARLINK-2151","LAUNCH_DATE":"2021-05-15","ELEMENT_SET_NO":"999","REF_FRAME":"TEME","APOAPSIS":"548.247","MEAN_ANOMALY":"276.8177","ECCENTRICITY":"0.00015020","COUNTRY_CODE":"US","PERIAPSIS":"546.167","MEAN_ELEMENT_THEORY":"SGP4","TLE_LINE2":"2 48556  53.0542  14.1686 0001502  83.2982 276.8177 15.06402140 63869","EPHEMERIS_TYPE":"0","REV_AT_EPOCH":"6386","OBJECT_ID":"2021-041D","NORAD_CAT_ID":"48556","FILE":"3513188","MEAN_MOTION_DOT":"0.00000596","OBJECT_TYPE":"PAYLOAD","BSTAR":"0.00005887300000","SEMIMAJOR_AXIS":"6925.342","EPOCH":"2022-07-13T19:17:26.420928","RA_OF_ASC_NODE":"14.1686","INCLINATION":"53.0542","MEAN_MOTION":"15.06402140","MEAN_MOTION_DDOT":"0.0000000000000","CENTER_NAME":"EARTH","RCS_SIZE":"LARGE"},{"ELEMENT_SET_NO":"999","LAUNCH_DATE":"2021-05-15","OBJECT_NAME":"STARLINK-2155","ARG_OF_PERICENTER":"82.1066","TIME_SYSTEM":"UTC","SITE":"AFETR","PERIOD":"95.592","TLE_LINE1":"1 48557U 21041E   22194.74204292 -.00000797  00000-0 -34587-4 0  9991","DECAY_DATE":null,"CLASSIFICATION_TYPE":"U","GP_ID":"208065426","APOAPSIS":"548.175","REF_FRAME":"TEME","EPOCH":"2022-07-13T17:48:32.508288","SEMIMAJOR_AXIS":"6925.328","BSTAR":"-0.00003458700000","OBJECT_TYPE":"PAYLOAD","FILE":"3513188","MEAN_MOTION_DOT":"-0.00000797","NORAD_CAT_ID":"48557","OBJECT_ID":"2021-041E","REV_AT_EPOCH":"6399","EPHEMERIS_TYPE":"0","TLE_LINE2":"2 48557  53.0542   4.4358 0001418  82.1066 278.0083 15.06406568 63997","MEAN_ELEMENT_THEORY":"SGP4","PERIAPSIS":"546.211","COUNTRY_CODE":"US","ECCENTRICITY":"0.00014180","MEAN_ANOMALY":"278.0083","CENTER_NAME":"EARTH","RCS_SIZE":"LARGE","MEAN_MOTION_DDOT":"0.0000000000000","MEAN_MOTION":"15.06406568","INCLINATION":"53.0542","RA_OF_ASC_NODE":"4.4358"},{"APOAPSIS":"548.224","REF_FRAME":"TEME","OBJECT_NAME":"STARLINK-2166","ELEMENT_SET_NO":"999","LAUNCH_DATE":"2021-05-15","SITE":"AFETR","TIME_SYSTEM":"UTC","ARG_OF_PERICENTER":"101.2011","CLASSIFICATION_TYPE":"U","TLE_LINE1":"1 48558U 21041F   22194.80471299  .00000092  00000-0  25069-4 0  9993","PERIOD":"95.593","DECAY_DATE":null,"GP_ID":"208066676","CENTER_NAME":"EARTH","RCS_SIZE":"LARGE","INCLINATION":"53.0564","MEAN_MOTION":"15.06393233","MEAN_MOTION_DDOT":"0.0000000000000","RA_OF_ASC_NODE":"4.1575","OBJECT_TYPE":"PAYLOAD","BSTAR":"0.00002506900000","EPOCH":"2022-07-13T19:18:47.202336","SEMIMAJOR_AXIS":"6925.369","TLE_LINE2":"2 48558  53.0564   4.1575 0001429 101.2011 258.9139 15.06393233 63145","MEAN_ELEMENT_THEORY":"SGP4","OBJECT_ID":"2021-041F","REV_AT_EPOCH":"6314","EPHEMERIS_TYPE":"0","FILE":"3513188","MEAN_MOTION_DOT":"0.00000092","NORAD_CAT_ID":"48558","COUNTRY_CODE":"US","ECCENTRICITY":"0.00014290","PERIAPSIS":"546.245","MEAN_ANOMALY":"258.9139"},{"CENTER_NAME":"EARTH","RCS_SIZE":"LARGE","RA_OF_ASC_NODE":"3.9843","MEAN_MOTION":"15.06397934","MEAN_MOTION_DDOT":"0.0000000000000","INCLINATION":"53.0556","FILE":"3513188","MEAN_MOTION_DOT":"-0.00002552","NORAD_CAT_ID":"48559","TLE_LINE2":"2 48559  53.0556   3.9843 0001482  88.7420 271.3739 15.06397934 64007","MEAN_ELEMENT_THEORY":"SGP4","REV_AT_EPOCH":"6400","EPHEMERIS_TYPE":"0","OBJECT_ID":"2021-041G","BSTAR":"-0.00015251000000","SEMIMAJOR_AXIS":"6925.355","EPOCH":"2022-07-13T20:10:29.358048","OBJECT_TYPE":"PAYLOAD","MEAN_ANOMALY":"271.3739","ECCENTRICITY":"0.00014820","COUNTRY_CODE":"US","PERIAPSIS":"546.194","APOAPSIS":"548.246","REF_FRAME":"TEME","TIME_SYSTEM":"UTC","ARG_OF_PERICENTER":"88.7420","SITE":"AFETR","OBJECT_NAME":"STARLINK-2167","ELEMENT_SET_NO":"999","LAUNCH_DATE":"2021-05-15","GP_ID":"208066421","PERIOD":"95.592","TLE_LINE1":"1 48559U 21041G   22194.84061757 -.00002552  00000-0 -15251-3 0  9998","DECAY_DATE":null,"CLASSIFICATION_TYPE":"U"},{"RCS_SIZE":"LARGE","CENTER_NAME":"EARTH","RA_OF_ASC_NODE":"334.4985","INCLINATION":"53.0554","MEAN_MOTION":"15.06402208","MEAN_MOTION_DDOT":"0.0000000000000","MEAN_ELEMENT_THEORY":"SGP4","TLE_LINE2":"2 48561  53.0554 334.4985 0001354 101.3936 258.7205 15.06402208 64423","EPHEMERIS_TYPE":"0","REV_AT_EPOCH":"6442","OBJECT_ID":"2021-041J","FILE":"3513188","MEAN_MOTION_DOT":"-0.00001167","NORAD_CAT_ID":"48561","OBJECT_TYPE":"PAYLOAD","BSTAR":"-0.00005946000000","EPOCH":"2022-07-13T18:56:15.872640","SEMIMAJOR_AXIS":"6925.342","MEAN_ANOMALY":"258.7205","COUNTRY_CODE":"US","ECCENTRICITY":"0.00013540","PERIAPSIS":"546.269","APOAPSIS":"548.144","REF_FRAME":"TEME","SITE":"AFETR","ARG_OF_PERICENTER":"101.3936","TIME_SYSTEM":"UTC","OBJECT_NAME":"STARLINK-2186","LAUNCH_DATE":"2021-05-15","ELEMENT_SET_NO":"999","GP_ID":"208065675","CLASSIFICATION_TYPE":"U","DECAY_DATE":null,"TLE_LINE1":"1 48561U 21041J   22194.78907260 -.00001167  00000-0 -59460-4 0  9994","PERIOD":"95.592"},{"FILE":"3513188","MEAN_MOTION_DOT":"0.00001753","NORAD_CAT_ID":"48562","EPHEMERIS_TYPE":"0","REV_AT_EPOCH":"6400","OBJECT_ID":"2021-041K","MEAN_ELEMENT_THEORY":"SGP4","TLE_LINE2":"2 48562  53.0545   4.2470 0001450 101.4561 258.6591 15.06413718 64006","SEMIMAJOR_AXIS":"6925.307","EPOCH":"2022-07-13T18:46:55.961760","BSTAR":"0.00013649000000","OBJECT_TYPE":"PAYLOAD","MEAN_ANOMALY":"258.6591","PERIAPSIS":"546.167","ECCENTRICITY":"0.00014500","COUNTRY_CODE":"US","CENTER_NAME":"EARTH","RCS_SIZE":"LARGE","RA_OF_ASC_NODE":"4.2470","MEAN_MOTION_DDOT":"0.0000000000000","MEAN_MOTION":"15.06413718","INCLINATION":"53.0545","TIME_SYSTEM":"UTC","ARG_OF_PERICENTER":"101.4561","SITE":"AFETR","ELEMENT_SET_NO":"999","LAUNCH_DATE":"2021-05-15","OBJECT_NAME":"STARLINK-2187","GP_ID":"208065924","TLE_LINE1":"1 48562U 21041K   22194.78259215  .00001753  00000-0  13649-3 0  9992","PERIOD":"95.591","DECAY_DATE":null,"CLASSIFICATION_TYPE":"U","APOAPSIS":"548.176","REF_FRAME":"TEME"}];
